[{"OBJECT_NAME":"STARLINK-30124","OBJECT_ID":"2023-067C","EPOCH":"2026-03-09T22:37:13.872288","MEAN_MOTION":15.02519013,"ECCENTRICITY":0.00012533,"INCLINATION":43.0033,"RA_OF_ASC_NODE":273.4513,"ARG_OF_PERICENTER":267.9842,"MEAN_ANOMALY":92.0857,"EPHEMERIS_TYPE":0,"CLASSIFICATION_TYPE":"U","NORAD_CAT_ID":56690,"ELEMENT_SET_NO":999,"REV_AT_EPOCH":15569,"BSTAR":9.0782528e-5,"MEAN_MOTION_DOT":1.022e-5,"MEAN_MOTION_DDOT":0},{"OBJECT_NAME":"COSMOS 2251 DEB","OBJECT_ID":"1993-036N","EPOCH":"2026-03-09T20:39:34.848000","MEAN_MOTION":15.17003756,"ECCENTRICITY":0.00564486,"INCLINATION":74.0035,"RA_OF_ASC_NODE":352.1163,"ARG_OF_PERICENTER":60.1769,"MEAN_ANOMALY":300.5022,"EPHEMERIS_TYPE":0,"CLASSIFICATION_TYPE":"U","NORAD_CAT_ID":33765,"ELEMENT_SET_NO":999,"REV_AT_EPOCH":90936,"BSTAR":0.0026022202,"MEAN_MOTION_DOT":0.00053945,"MEAN_MOTION_DDOT":0}]
